#cP2005  4  4 00 00 00.00000000    8638 U+u   IGS00 FIT DEOS
## 1317  86400.00000000    10.00000000 53464 0.0000000000000
+    1   L06  0  0  0  0  0  0  0  0  0  0  0  0  0  0  0  0
+          0  0  0  0  0  0  0  0  0  0  0  0  0  0  0  0  0
+          0  0  0  0  0  0  0  0  0  0  0  0  0  0  0  0  0
+          0  0  0  0  0  0  0  0  0  0  0  0  0  0  0  0  0
+          0  0  0  0  0  0  0  0  0  0  0  0  0  0  0  0  0
++         0  0  0  0  0  0  0  0  0  0  0  0  0  0  0  0  0
++         0  0  0  0  0  0  0  0  0  0  0  0  0  0  0  0  0
++         0  0  0  0  0  0  0  0  0  0  0  0  0  0  0  0  0
++         0  0  0  0  0  0  0  0  0  0  0  0  0  0  0  0  0
++         0  0  0  0  0  0  0  0  0  0  0  0  0  0  0  0  0
%c cc cc ccc ccc cccc cccc cccc cccc ccccc ccccc ccccc ccccc
%c cc cc ccc ccc cccc cccc cccc cccc ccccc ccccc ccccc ccccc
%f   .0000000   .000000000   .00000000000   .000000000000000
%f   .0000000   .000000000   .00000000000   .000000000000000
%i    0    0    0    0      0      0      0      0         0
%i    0    0    0    0      0      0      0      0         0
/* NOTE: CCCCCCCCCCCCCCCCCCCCCCCCCCCCCCCCCCCCCCCCCCCCCCCCCCC
/* CCCCCCCCCCCCCCCCCCCCCCCCCCCCCCCCCCCCCCCCCCCCCCCCCCCCCCCCC
/* CCCCCCCCCCCCCCCCCCCCCCCCCCCCCCCCCCCCCCCCCCCCCCCCCCCCCCCCC
/* CCCCCCCCCCCCCCCCCCCCCCCCCCCCCCCCCCCCCCCCCCCCCCCCCCCCCCCCC
*  2005 04 04 01 33 00.00000000
PL06   5570.447938   -929.060485  -3687.350720 999999.999999
*  2005 04 04 01 33 10.00000000
PL06   5611.444585   -935.641375  -3622.841358 999999.999999
*  2005 04 04 01 33 20.00000000
PL06   5651.706088   -942.160533  -3557.860249 999999.999999
*  2005 04 04 01 33 30.00000000
PL06   5691.227257   -948.616029  -3492.415809 999999.999999
*  2005 04 04 01 33 40.00000000
PL06   5730.002998   -955.005930  -3426.516511 999999.999999
*  2005 04 04 01 33 50.00000000
PL06   5768.028318   -961.328307  -3360.170893 999999.999999
*  2005 04 04 01 34 00.00000000
PL06   5805.298320   -967.581231  -3293.387552 999999.999999
*  2005 04 04 01 34 10.00000000
PL06   5841.808208   -973.762774  -3226.175143 999999.999999
*  2005 04 04 01 34 20.00000000
PL06   5877.553289   -979.871013  -3158.542380 999999.999999
*  2005 04 04 01 34 30.00000000
PL06   5912.528968   -985.904024  -3090.498034 999999.999999
*  2005 04 04 01 34 40.00000000
PL06   5946.730753   -991.859889  -3022.050930 999999.999999
*  2005 04 04 01 34 50.00000000
PL06   5980.154255   -997.736693  -2953.209950 999999.999999
*  2005 04 04 01 35 00.00000000
PL06   6012.795188  -1003.532522  -2883.984028 999999.999999
*  2005 04 04 01 35 10.00000000
PL06   6044.649369  -1009.245471  -2814.382151 999999.999999
*  2005 04 04 01 35 20.00000000
PL06   6075.712721  -1014.873636  -2744.413355 999999.999999
*  2005 04 04 01 35 30.00000000
PL06   6105.981271  -1020.415119  -2674.086728 999999.999999
*  2005 04 04 01 35 40.00000000
PL06   6135.451152  -1025.868029  -2603.411407 999999.999999
*  2005 04 04 01 35 50.00000000
PL06   6164.118601  -1031.230478  -2532.396574 999999.999999
*  2005 04 04 01 36 00.00000000
PL06   6191.979965  -1036.500587  -2461.051458 999999.999999
*  2005 04 04 01 36 10.00000000
PL06   6219.031696  -1041.676484  -2389.385336 999999.999999
*  2005 04 04 01 36 20.00000000
PL06   6245.270354  -1046.756300  -2317.407526 999999.999999
*  2005 04 04 01 36 30.00000000
PL06   6270.692608  -1051.738178  -2245.127389 999999.999999
*  2005 04 04 01 36 40.00000000
PL06   6295.295234  -1056.620267  -2172.554328 999999.999999
*  2005 04 04 01 36 50.00000000
PL06   6319.075119  -1061.400724  -2099.697787 999999.999999
*  2005 04 04 01 37 00.00000000
PL06   6342.029258  -1066.077716  -2026.567247 999999.999999
*  2005 04 04 01 37 10.00000000
PL06   6364.154757  -1070.649419  -1953.172228 999999.999999
*  2005 04 04 01 37 20.00000000
PL06   6385.448832  -1075.114016  -1879.522287 999999.999999
*  2005 04 04 01 37 30.00000000
PL06   6405.908811  -1079.469704  -1805.627016 999999.999999
*  2005 04 04 01 37 40.00000000
PL06   6425.532132  -1083.714687  -1731.496038 999999.999999
*  2005 04 04 01 37 50.00000000
PL06   6444.316345  -1087.847183  -1657.139014 999999.999999
*  2005 04 04 01 38 00.00000000
PL06   6462.259112  -1091.865417  -1582.565631 999999.999999
*  2005 04 04 01 38 10.00000000
PL06   6479.358207  -1095.767630  -1507.785609 999999.999999
*  2005 04 04 01 38 20.00000000
PL06   6495.611517  -1099.552072  -1432.808696 999999.999999
*  2005 04 04 01 38 30.00000000
PL06   6511.017041  -1103.217007  -1357.644668 999999.999999
*  2005 04 04 01 38 40.00000000
PL06   6525.572892  -1106.760711  -1282.303326 999999.999999
*  2005 04 04 01 38 50.00000000
PL06   6539.277297  -1110.181472  -1206.794497 999999.999999
*  2005 04 04 01 39 00.00000000
PL06   6552.128595  -1113.477595  -1131.128032 999999.999999
*  2005 04 04 01 39 10.00000000
PL06   6564.125240  -1116.647395  -1055.313801 999999.999999
*  2005 04 04 01 39 20.00000000
PL06   6575.265800  -1119.689203   -979.361700 999999.999999
*  2005 04 04 01 39 30.00000000
PL06   6585.548958  -1122.601366   -903.281640 999999.999999
*  2005 04 04 01 39 40.00000000
PL06   6594.973509  -1125.382245   -827.083555 999999.999999
*  2005 04 04 01 39 50.00000000
PL06   6603.538367  -1128.030215   -750.777392 999999.999999
*  2005 04 04 01 40 00.00000000
PL06   6611.242558  -1130.543669   -674.373116 999999.999999
*  2005 04 04 01 40 10.00000000
PL06   6618.085224  -1132.921017   -597.880705 999999.999999
*  2005 04 04 01 40 20.00000000
PL06   6624.065622  -1135.160682   -521.310151 999999.999999
*  2005 04 04 01 40 30.00000000
PL06   6629.183126  -1137.261107   -444.671457 999999.999999
*  2005 04 04 01 40 40.00000000
PL06   6633.437225  -1139.220752   -367.974637 999999.999999
*  2005 04 04 01 40 50.00000000
PL06   6636.827521  -1141.038095   -291.229713 999999.999999
*  2005 04 04 01 41 00.00000000
PL06   6639.353735  -1142.711631   -214.446715 999999.999999
*  2005 04 04 01 41 10.00000000
PL06   6641.015704  -1144.239875   -137.635679 999999.999999
*  2005 04 04 01 41 20.00000000
PL06   6641.813377  -1145.621360    -60.806645 999999.999999
*  2005 04 04 01 41 30.00000000
PL06   6641.746822  -1146.854638     16.030342 999999.999999
*  2005 04 04 01 41 40.00000000
PL06   6640.816221  -1147.938281     92.865237 999999.999999
*  2005 04 04 01 41 50.00000000
PL06   6639.021874  -1148.870882    169.687994 999999.999999
*  2005 04 04 01 42 00.00000000
PL06   6636.364194  -1149.651052    246.488567 999999.999999
*  2005 04 04 01 42 10.00000000
PL06   6632.843709  -1150.277425    323.256913 999999.999999
*  2005 04 04 01 42 20.00000000
PL06   6628.461064  -1150.748654    399.982992 999999.999999
*  2005 04 04 01 42 30.00000000
PL06   6623.217017  -1151.063415    476.656769 999999.999999
*  2005 04 04 01 42 40.00000000
PL06   6617.112443  -1151.220405    553.268215 999999.999999
*  2005 04 04 01 42 50.00000000
PL06   6610.148330  -1151.218342    629.807306 999999.999999
*  2005 04 04 01 43 00.00000000
PL06   6602.325781  -1151.055968    706.264029 999999.999999
*  2005 04 04 01 43 10.00000000
PL06   6593.646016  -1150.732049    782.628380 999999.999999
*  2005 04 04 01 43 20.00000000
PL06   6584.110368  -1150.245370    858.890367 999999.999999
*  2005 04 04 01 43 30.00000000
PL06   6573.720284  -1149.594745    935.040008 999999.999999
*  2005 04 04 01 43 40.00000000
PL06   6562.477328  -1148.779007   1011.067337 999999.999999
*  2005 04 04 01 43 50.00000000
PL06   6550.383176  -1147.797017   1086.962405 999999.999999
*  2005 04 04 01 44 00.00000000
PL06   6537.439618  -1146.647657   1162.715278 999999.999999
*  2005 04 04 01 44 10.00000000
PL06   6523.648560  -1145.329837   1238.316040 999999.999999
*  2005 04 04 01 44 20.00000000
PL06   6509.012018  -1143.842490   1313.754798 999999.999999
*  2005 04 04 01 44 30.00000000
PL06   6493.532125  -1142.184574   1389.021676 999999.999999
*  2005 04 04 01 44 40.00000000
PL06   6477.211122  -1140.355074   1464.106823 999999.999999
*  2005 04 04 01 44 50.00000000
PL06   6460.051365  -1138.353000   1539.000411 999999.999999
*  2005 04 04 01 45 00.00000000
PL06   6442.055321  -1136.177387   1613.692638 999999.999999
*  2005 04 04 01 45 10.00000000
PL06   6423.225569  -1133.827300   1688.173728 999999.999999
*  2005 04 04 01 45 20.00000000
PL06   6403.564799  -1131.301826   1762.433932 999999.999999
*  2005 04 04 01 45 30.00000000
PL06   6383.075812  -1128.600083   1836.463531 999999.999999
*  2005 04 04 01 45 40.00000000
PL06   6361.761516  -1125.721214   1910.252837 999999.999999
*  2005 04 04 01 45 50.00000000
PL06   6339.624933  -1122.664390   1983.792192 999999.999999
*  2005 04 04 01 46 00.00000000
PL06   6316.669191  -1119.428812   2057.071973 999999.999999
*  2005 04 04 01 46 10.00000000
PL06   6292.897527  -1116.013706   2130.082589 999999.999999
*  2005 04 04 01 46 20.00000000
PL06   6268.313287  -1112.418327   2202.814487 999999.999999
*  2005 04 04 01 46 30.00000000
PL06   6242.919925  -1108.641960   2275.258147 999999.999999
*  2005 04 04 01 46 40.00000000
PL06   6216.721000  -1104.683918   2347.404090 999999.999999
*  2005 04 04 01 46 50.00000000
PL06   6189.720181  -1100.543542   2419.242875 999999.999999
*  2005 04 04 01 47 00.00000000
PL06   6161.921242  -1096.220203   2490.765101 999999.999999
*  2005 04 04 01 47 10.00000000
PL06   6133.328061  -1091.713304   2561.961411 999999.999999
*  2005 04 04 01 47 20.00000000
PL06   6103.944624  -1087.022273   2632.822488 999999.999999
*  2005 04 04 01 47 30.00000000
PL06   6073.775020  -1082.146572   2703.339061 999999.999999
*  2005 04 04 01 47 40.00000000
PL06   6042.823442  -1077.085691   2773.501906 999999.999999
*  2005 04 04 01 47 50.00000000
PL06   6011.094187  -1071.839150   2843.301843 999999.999999
*  2005 04 04 01 48 00.00000000
PL06   5978.591654  -1066.406502   2912.729743 999999.999999
*  2005 04 04 01 48 10.00000000
PL06   5945.320344  -1060.787327   2981.776523 999999.999999
*  2005 04 04 01 48 20.00000000
PL06   5911.284860  -1054.981240   3050.433153 999999.999999
EOF
